NORAD_CAT_ID,OBJECT_NAME,OBJECT_TYPE,EPOCH,MEAN_MOTION,ECCENTRICITY,INCLINATION,RA_OF_ASC_NODE,ARG_OF_PERICENTER,MEAN_ANOMALY,BSTAR,MEAN_MOTION_DOT,MEAN_MOTION_DDOT,TLE_LINE0,TLE_LINE1,TLE_LINE2,SEMIMAJOR_AXIS,PERIOD,APOGEE,PERIGEE,DECAYED
53424.0,STARLINK-4532,PAYLOAD,2023-03-26 22:31:32,15.08841302,0.0001108,53.2163,276.8228,102.959,257.1526,0.0016693,0.0002638,0.0,0 STARLINK-4532,1 53424U 22097AN  23085.93856688  .00026380  00000-0  16693-2 0  9995,2 53424  53.2163 276.8228 0001108 102.9590 257.1526 15.08841302 35795,6917.876,95.437,540.508,538.975,0.0
53424.0,STARLINK-4532,PAYLOAD,2023-03-27 00:06:55,15.08843636,0.000108,53.2161,276.5251,102.8482,257.2631,0.0016526,0.00026114,0.0,0 STARLINK-4532,1 53424U 22097AN  23086.00480699  .00026114  00000-0  16526-2 0  9999,2 53424  53.2161 276.5251 0001080 102.8482 257.2631 15.08843636 35806,6917.869,95.437,540.481,538.987,0.0
53424.0,STARLINK-4532,PAYLOAD,2023-03-27 19:11:31,15.08882849,9.89e-05,53.2162,272.9563,100.7729,259.3374,0.0015584,0.0002463,0.0,0 STARLINK-4532,1 53424U 22097AN  23086.79967293  .00024630  00000-0  15584-2 0  9999,2 53424  53.2162 272.9563 0000989 100.7729 259.3374 15.08882849 35920,6917.749,95.435,540.299,538.93,0.0
53424.0,STARLINK-4532,PAYLOAD,2023-03-28 04:43:49,15.08904219,9.46e-05,53.2162,271.1718,100.4636,259.6463,0.0015373,0.00024306,0.0,0 STARLINK-4532,1 53424U 22097AN  23087.19709766  .00024306  00000-0  15373-2 0  9999,2 53424  53.2162 271.1718 0000946 100.4636 259.6463 15.08904219 35502,6917.684,95.433,540.204,538.895,0.0
53424.0,STARLINK-4532,PAYLOAD,2023-03-28 12:40:45,15.08865945,0.0002091,53.2171,269.6836,101.2518,258.8709,0.00088442,0.00013826,0.0,0 STARLINK-4532,1 53424U 22097AN  23087.52830574  .00013826  00000-0  88442-3 0  9991,2 53424  53.2171 269.6836 0002091 101.2518 258.8709 15.08865945 35557,6917.801,95.436,541.113,538.22,0.0
53424.0,STARLINK-4532,PAYLOAD,2023-03-28 20:37:40,15.0886703,8.54e-05,53.2161,268.1981,79.1361,280.9727,0.00063408,9.825e-05,0.0,0 STARLINK-4532,1 53424U 22097AN  23087.85950140  .00009825  00000-0  63408-3 0  9998,2 53424  53.2161 268.1981 0000854  79.1361 280.9727 15.08867030 36087,6917.798,95.436,540.254,539.072,0.0
53424.0,STARLINK-4532,PAYLOAD,2023-03-29 04:34:36,15.08857201,0.0001326,53.2158,266.7113,100.8549,259.2593,0.00073572,0.00011446,0.0,0 STARLINK-4532,1 53424U 22097AN  23088.19070059  .00011446  00000-0  73572-3 0  9993,2 53424  53.2158 266.7113 0001326 100.8549 259.2593 15.08857201 35650,6917.828,95.436,540.61,538.776,0.0
53424.0,STARLINK-4532,PAYLOAD,2023-03-29 18:53:04,15.08858049,0.0001299,53.2169,264.0371,116.2019,243.9107,0.00088751,0.00013872,0.0,0 STARLINK-4532,1 53424U 22097AN  23088.78685885  .00013872  00000-0  88751-3 0  9997,2 53424  53.2169 264.0371 0001299 116.2019 243.9107 15.08858049 35743,6917.825,95.436,540.589,538.792,0.0
53424.0,STARLINK-4532,PAYLOAD,2023-03-30 04:25:24,15.08828049,0.0003217,53.2151,262.2511,84.5141,275.6218,0.00094549,0.00014787,0.0,0 STARLINK-4532,1 53424U 22097AN  23089.18431035  .00014787  00000-0  94549-3 0  9996,2 53424  53.2151 262.2511 0003217  84.5141 275.6218 15.08828049 35804,6917.917,95.438,542.007,537.556,0.0
53424.0,STARLINK-4532,PAYLOAD,2023-03-30 18:43:52,15.08843656,0.0001423,53.2151,259.5754,86.4069,273.7086,0.0018421,0.00029154,0.0,0 STARLINK-4532,1 53424U 22097AN  23089.78046643  .00029154  00000-0  18421-2 0  9997,2 53424  53.2151 259.5754 0001423  86.4069 273.7086 15.08843656 36375,6917.869,95.437,540.719,538.75,0.0
53424.0,STARLINK-4532,PAYLOAD,2023-03-31 20:10:02,15.08857991,0.0001649,53.2155,254.8176,67.9417,292.175,0.00098542,0.00015437,0.0,0 STARLINK-4532,1 53424U 22097AN  23090.84030220  .00015437  00000-0  98542-3 0  9992,2 53424  53.2155 254.8176 0001649  67.9417 292.1750 15.08857991 36051,6917.825,95.436,540.831,538.55,0.0
53424.0,STARLINK-4532,PAYLOAD,2023-04-01 04:06:57,15.08843415,3.1e-05,53.2157,253.3305,50.6473,309.4546,0.00011302,1.512e-05,0.0,0 STARLINK-4532,1 53424U 22097AN  23091.17149638  .00001512  00000-0  11302-3 0  9991,2 53424  53.2157 253.3305 0000310  50.6473 309.4546 15.08843415 36103,6917.87,95.437,539.949,539.52,0.0
53424.0,STARLINK-4532,PAYLOAD,2023-04-01 10:28:30,15.08837906,0.0002388,53.2136,252.14,80.4546,279.6716,0.00038787,5.89e-05,0.0,0 STARLINK-4532,1 53424U 22097AN  23091.43646805  .00005890  00000-0  38787-3 0  9997,2 53424  53.2136 252.1400 0002388  80.4546 279.6716 15.08837906 36624,6917.887,95.438,541.404,538.1,0.0
53424.0,STARLINK-4532,PAYLOAD,2023-04-01 16:50:03,15.08844084,0.0002504,53.2137,250.9532,76.5804,283.5467,0.00094775,0.00014829,0.0,0 STARLINK-4532,1 53424U 22097AN  23091.70142939  .00014829  00000-0  94775-3 0  9997,2 53424  53.2137 250.9532 0002504  76.5804 283.5467 15.08844084 36666,6917.868,95.437,541.465,538.001,0.0
53424.0,STARLINK-4532,PAYLOAD,2023-04-02 03:57:45,15.08836026,0.0001734,53.2164,248.8707,82.3679,277.751,0.00065427,0.00010139,0.0,0 STARLINK-4532,1 53424U 22097AN  23092.16511438  .00010139  00000-0  65427-3 0  9994,2 53424  53.2164 248.8707 0001734  82.3679 277.7510 15.08836026 36251,6917.893,95.438,540.957,538.558,0.0
53424.0,STARLINK-4532,PAYLOAD,2023-04-02 13:30:04,15.08847192,0.0001483,53.2154,247.0862,82.3983,277.7178,0.00061132,9.456e-05,0.0,0 STARLINK-4532,1 53424U 22097AN  23092.56255130  .00009456  00000-0  61132-3 0  9991,2 53424  53.2154 247.0862 0001483  82.3983 277.7178 15.08847192 36797,6917.858,95.437,540.749,538.697,0.0
53424.0,STARLINK-4532,PAYLOAD,2023-04-02 16:40:50,15.08853288,0.0001288,53.215,246.4909,84.6672,275.4468,0.0008015,0.00012496,0.0,0 STARLINK-4532,1 53424U 22097AN  23092.69502941  .00012496  00000-0  80150-3 0  9999,2 53424  53.2150 246.4909 0001288  84.6672 275.4468 15.08853288 36814,6917.84,95.437,540.596,538.814,0.0
53424.0,STARLINK-4532,PAYLOAD,2023-04-03 10:10:05,15.08835903,0.0001311,53.2161,243.2214,77.3713,282.7426,-4.0547e-06,-3.52e-06,0.0,0 STARLINK-4532,1 53424U 22097AN  23093.42367292 -.00000352  00000-0 -40547-5 0  9997,2 53424  53.2161 243.2214 0001311  77.3713 282.7426 15.08835903 36440,6917.893,95.438,540.665,538.851,0.0
53424.0,STARLINK-4532,PAYLOAD,2023-04-04 17:57:47,15.0885885,0.0001324,53.2171,237.2747,71.4349,288.6787,0.00088235,0.0001379,0.0,0 STARLINK-4532,1 53424U 22097AN  23094.74847143  .00013790  00000-0  88235-3 0  9993,2 53424  53.2171 237.2747 0001324  71.4349 288.6787 15.08858850 36642,6917.823,95.436,540.604,538.772,0.0
53424.0,STARLINK-4532,PAYLOAD,2023-04-04 21:08:33,15.08868319,0.0001065,53.2159,236.6769,106.5257,253.5852,0.0010518,0.00016504,0.0,0 STARLINK-4532,1 53424U 22097AN  23094.88094631  .00016504  00000-0  10518-2 0  9998,2 53424  53.2159 236.6769 0001065 106.5257 253.5852 15.08868319 37146,6917.794,95.436,540.396,538.922,0.0
53424.0,STARLINK-4532,PAYLOAD,2023-04-05 13:02:25,15.08844434,0.0001186,53.2162,233.7033,89.7626,270.3502,0.00018079,2.591e-05,0.0,0 STARLINK-4532,1 53424U 22097AN  23095.54335045  .00002591  00000-0  18079-3 0  9991,2 53424  53.2162 233.7033 0001186  89.7626 270.3502 15.08844434 36766,6917.867,95.437,540.552,538.911,0.0
53424.0,STARLINK-4532,PAYLOAD,2023-04-05 14:37:48,15.08845834,0.0001173,53.2162,233.4059,89.3033,270.8093,0.00028393,4.234e-05,0.0,0 STARLINK-4532,1 53424U 22097AN  23095.60959019  .00004234  00000-0  28393-3 0  9997,2 53424  53.2162 233.4059 0001173  89.3033 270.8093 15.08845834 37255,6917.863,95.437,540.539,538.916,0.0
53424.0,STARLINK-4532,PAYLOAD,2023-04-05 19:23:57,15.08856306,0.0001179,53.2163,232.5142,85.6423,274.4704,0.00077399,0.00012057,0.0,0 STARLINK-4532,1 53424U 22097AN  23095.80830821  .00012057  00000-0  77399-3 0  9990,2 53424  53.2163 232.5142 0001179  85.6423 274.4704 15.08856306 37285,6917.831,95.437,540.511,538.88,0.0
53424.0,STARLINK-4532,PAYLOAD,2023-04-06 00:10:07,15.0883068,0.0001306,53.2163,231.6217,84.2223,275.8918,-3.2772e-05,-8.09e-06,0.0,0 STARLINK-4532,1 53424U 22097AN  23096.00703300 -.00000809  00000-0 -32772-4 0  9995,2 53424  53.2163 231.6217 0001306  84.2223 275.8918 15.08830680 36832,6917.909,95.438,540.677,538.87,0.0
53424.0,STARLINK-4532,PAYLOAD,2023-04-06 11:17:49,15.08842726,0.0001283,53.2161,229.5399,99.581,260.5327,0.00071072,0.00011042,0.0,0 STARLINK-4532,1 53424U 22097AN  23096.47071323  .00011042  00000-0  71072-3 0  9993,2 53424  53.2161 229.5399 0001283  99.5810 260.5327 15.08842726 36909,6917.872,95.437,540.625,538.849,0.0
53424.0,STARLINK-4532,PAYLOAD,2023-04-06 12:53:12,15.08847151,0.000126,53.2162,229.2426,98.7272,261.3863,0.00088922,0.00013895,0.0,0 STARLINK-4532,1 53424U 22097AN  23096.53695281  .00013895  00000-0  88922-3 0  9995,2 53424  53.2162 229.2426 0001260  98.7272 261.3863 15.08847151 37391,6917.859,95.437,540.595,538.852,0.0
53424.0,STARLINK-4532,PAYLOAD,2023-04-06 22:25:31,15.08837053,0.0001377,53.2161,227.4589,78.4471,281.6676,0.00015732,2.217e-05,0.0,0 STARLINK-4532,1 53424U 22097AN  23096.93439415  .00002217  00000-0  15732-3 0  9999,2 53424  53.2161 227.4589 0001377  78.4471 281.6676 15.08837053 37459,6917.889,95.438,540.707,538.802,0.0
53424.0,STARLINK-4532,PAYLOAD,2023-04-07 01:36:17,15.08837238,0.0001348,53.216,226.8642,85.9895,274.1251,0.00021253,3.096e-05,0.0,0 STARLINK-4532,1 53424U 22097AN  23097.06687470  .00003096  00000-0  21253-3 0  9991,2 53424  53.2160 226.8642 0001348  85.9895 274.1251 15.08837238 36991,6917.889,95.438,540.686,538.821,0.0
53424.0,STARLINK-4532,PAYLOAD,2023-04-07 12:43:59,15.08852604,0.0001155,53.216,224.7832,99.8696,260.2426,0.0014529,0.00022918,0.0,0 STARLINK-4532,1 53424U 22097AN  23097.53055298  .00022918  00000-0  14529-2 0  9991,2 53424  53.2160 224.7832 0001155  99.8696 260.2426 15.08852604 37544,6917.842,95.437,540.506,538.908,0.0
53424.0,STARLINK-4532,PAYLOAD,2023-04-07 17:30:09,15.088602,0.0001165,53.2159,223.8908,99.0851,261.0273,0.0017536,0.00027746,0.0,0 STARLINK-4532,1 53424U 22097AN  23097.72927104  .00027746  00000-0  17536-2 0  9991,2 53424  53.2159 223.8908 0001165  99.0851 261.0273 15.08860200 37092,6917.819,95.436,540.49,538.878,0.0
